ONEWEB-0311             
1 49097U 21075Y   24303.90806801  .00000218  00000+0  52806-3 0  9992
2 49097  87.9071 124.4464 0001204  99.0847 261.0421 13.17649930155237
ONEWEB-0312             
1 49098U 21075Z   24303.92325200 -.00000337  00000+0 -90183-3 0  9998
2 49098  87.9073 124.4755 0001123  79.3199 280.8059 13.17648119155216
ONEWEB-0313             
1 49099U 21075AA  24303.92304092 -.00000012  00000+0 -65551-4 0  9997
2 49099  87.9073 124.4886 0001287  84.5875 275.5402 13.16053652155205
ONEWEB-0314             
1 49100U 21075AB  24303.59082501  .00000067  00000+0  14046-3 0  9991
2 49100  87.9069 124.4969 0001100  83.3442 276.7815 13.17647988155131
ONEWEB-0315             
1 49101U 21075AC  24303.41594782 -.00000368  00000+0 -10596-2 0  9993
2 49101  87.8835 109.3025 0001435 105.5621 254.5666 13.12441894157025
ONEWEB-0316             
1 49102U 21075AD  24303.37721977 -.00000165  00000+0 -45219-3 0  9993
2 49102  87.9070  94.0336 0001422  98.3640 261.7653 13.18684827158689
ONEWEB-0317             
1 49103U 21075AE  24303.94312234 -.00000174  00000+0 -51801-3 0  9993
2 49103  87.8838 109.2089 0001957  80.2345 279.9005 13.12441955157116
ONEWEB-0318             
1 49104U 21075AF  24303.67757857  .00000078  00000+0  16484-3 0  9997
2 49104  87.9068  93.9633 0001390 101.8115 258.3173 13.18684285158684
